{
  "schema": "int-temerity-real-tle-snapshot/v1",
  "source": "celestrak",
  "group": "STARLINK",
  "format": "celestrak-gp-json",
  "source_url": "https://celestrak.org/NORAD/elements/gp.php?NAME=STARLINK&FORMAT=JSON",
  "downloaded_at": "2026-07-01T09:46:17.455Z",
  "generated_at": "2026-07-01T09:46:17.588Z",
  "fingerprint": "ee699b79",
  "shell_id": "starlink-real-53.2deg-545km",
  "catalog_count": 10658,
  "shell_count": 1056,
  "selected_count": 658,
  "mean_altitude_km": 545.46,
  "mean_inclination_deg": 53.1605,
  "mean_mean_motion_rev_per_day": 15.09305652,
  "layout": {
    "planes": 47,
    "satellites_per_plane": 14,
    "selection_strategy": "target-shell-raan-clusters-even-slot-sampling",
    "raan_cluster_threshold_deg": 1.5,
    "target_inclination_deg": 53,
    "target_altitude_km": 550,
    "selected_shell_key": "53.0deg-550km",
    "target_shell_distance": 21.03
  },
  "satellites": [
    {
      "satellite_id": "P13-S07",
      "norad_id": 53982,
      "satellite_name": "STARLINK-5120",
      "cospar_id": "2022-125U",
      "shell_id": "starlink-real-53.2deg-545km",
      "plane_id": 12,
      "slot_id": 6,
      "epoch": "2026-06-26T01:39:36.410688",
      "inclination": 53.1599,
      "raan": 87.47550000000001,
      "eccentricity": 0.0001326,
      "argument_of_perigee": 94.8046,
      "mean_anomaly": 265.3097,
      "mean_motion": 15.08856202,
      "bstar": 0.00038706,
      "status": "active",
      "raw_omm": {
        "OBJECT_NAME": "STARLINK-5120",
        "OBJECT_ID": "2022-125U",
        "EPOCH": "2026-06-26T01:39:36.410688",
        "MEAN_MOTION": 15.08856202,
        "ECCENTRICITY": 0.0001326,
        "INCLINATION": 53.1599,
        "RA_OF_ASC_NODE": 87.4755,
        "ARG_OF_PERICENTER": 94.8046,
        "MEAN_ANOMALY": 265.3097,
        "EPHEMERIS_TYPE": 0,
        "CLASSIFICATION_TYPE": "U",
        "NORAD_CAT_ID": 53982,
        "ELEMENT_SET_NO": 999,
        "REV_AT_EPOCH": 20581,
        "BSTAR": 0.00038706,
        "MEAN_MOTION_DOT": 0.0000588,
        "MEAN_MOTION_DDOT": 0
      },
      "source": "celestrak",
      "source_url": "https://celestrak.org/NORAD/elements/gp.php?NAME=STARLINK&FORMAT=JSON",
      "catalog_fingerprint": "ee699b79"
    },
    {
      "satellite_id": "P13-S08",
      "norad_id": 53988,
      "satellite_name": "STARLINK-5113",
      "cospar_id": "2022-125AA",
      "shell_id": "starlink-real-53.2deg-545km",
      "plane_id": 12,
      "slot_id": 7,
      "epoch": "2026-06-26T01:50:14.516160",
      "inclination": 53.1613,
      "raan": 87.51980000000003,
      "eccentricity": 0.0001372,
      "argument_of_perigee": 103.26639999999998,
      "mean_anomaly": 256.84799999999996,
      "mean_motion": 15.08842132,
      "bstar": -0.000041438,
      "status": "active",
      "raw_omm": {
        "OBJECT_NAME": "STARLINK-5113",
        "OBJECT_ID": "2022-125AA",
        "EPOCH": "2026-06-26T01:50:14.516160",
        "MEAN_MOTION": 15.08842132,
        "ECCENTRICITY": 0.0001372,
        "INCLINATION": 53.1613,
        "RA_OF_ASC_NODE": 87.5198,
        "ARG_OF_PERICENTER": 103.2664,
        "MEAN_ANOMALY": 256.848,
        "EPHEMERIS_TYPE": 0,
        "CLASSIFICATION_TYPE": "U",
        "NORAD_CAT_ID": 53988,
        "ELEMENT_SET_NO": 999,
        "REV_AT_EPOCH": 20581,
        "BSTAR": -0.000041438,
        "MEAN_MOTION_DOT": -0.00000948,
        "MEAN_MOTION_DDOT": 0
      },
      "source": "celestrak",
      "source_url": "https://celestrak.org/NORAD/elements/gp.php?NAME=STARLINK&FORMAT=JSON",
      "catalog_fingerprint": "ee699b79"
    },
    {
      "satellite_id": "P13-S09",
      "norad_id": 54005,
      "satellite_name": "STARLINK-5135",
      "cospar_id": "2022-125AT",
      "shell_id": "starlink-real-53.2deg-545km",
      "plane_id": 12,
      "slot_id": 8,
      "epoch": "2026-06-25T23:21:47.012256",
      "inclination": 53.1619,
      "raan": 87.59000000000003,
      "eccentricity": 0.0001398,
      "argument_of_perigee": 91.97159999999997,
      "mean_anomaly": 268.1436,
      "mean_motion": 15.08838456,
      "bstar": 0.0000069003,
      "status": "active",
      "raw_omm": {
        "OBJECT_NAME": "STARLINK-5135",
        "OBJECT_ID": "2022-125AT",
        "EPOCH": "2026-06-25T23:21:47.012256",
        "MEAN_MOTION": 15.08838456,
        "ECCENTRICITY": 0.0001398,
        "INCLINATION": 53.1619,
        "RA_OF_ASC_NODE": 87.59,
        "ARG_OF_PERICENTER": 91.9716,
        "MEAN_ANOMALY": 268.1436,
        "EPHEMERIS_TYPE": 0,
        "CLASSIFICATION_TYPE": "U",
        "NORAD_CAT_ID": 54005,
        "ELEMENT_SET_NO": 999,
        "REV_AT_EPOCH": 20581,
        "BSTAR": 0.0000069003,
        "MEAN_MOTION_DOT": -0.00000178,
        "MEAN_MOTION_DDOT": 0
      },
      "source": "celestrak",
      "source_url": "https://celestrak.org/NORAD/elements/gp.php?NAME=STARLINK&FORMAT=JSON",
      "catalog_fingerprint": "ee699b79"
    },
    {
      "satellite_id": "P13-S10",
      "norad_id": 53998,
      "satellite_name": "STARLINK-5128",
      "cospar_id": "2022-125AL",
      "shell_id": "starlink-real-53.2deg-545km",
      "plane_id": 12,
      "slot_id": 9,
      "epoch": "2026-06-25T23:27:05.942304",
      "inclination": 53.1615,
      "raan": 87.6132,
      "eccentricity": 0.0001416,
      "argument_of_perigee": 95.93219999999997,
      "mean_anomaly": 264.18309999999997,
      "mean_motion": 15.08835518,
      "bstar": -0.00003576,
      "status": "active",
      "raw_omm": {
        "OBJECT_NAME": "STARLINK-5128",
        "OBJECT_ID": "2022-125AL",
        "EPOCH": "2026-06-25T23:27:05.942304",
        "MEAN_MOTION": 15.08835518,
        "ECCENTRICITY": 0.0001416,
        "INCLINATION": 53.1615,
        "RA_OF_ASC_NODE": 87.6132,
        "ARG_OF_PERICENTER": 95.9322,
        "MEAN_ANOMALY": 264.1831,
        "EPHEMERIS_TYPE": 0,
        "CLASSIFICATION_TYPE": "U",
        "NORAD_CAT_ID": 53998,
        "ELEMENT_SET_NO": 999,
        "REV_AT_EPOCH": 20581,
        "BSTAR": -0.00003576,
        "MEAN_MOTION_DOT": -0.00000857,
        "MEAN_MOTION_DDOT": 0
      },
      "source": "celestrak",
      "source_url": "https://celestrak.org/NORAD/elements/gp.php?NAME=STARLINK&FORMAT=JSON",
      "catalog_fingerprint": "ee699b79"
    },
    {
      "satellite_id": "P13-S11",
      "norad_id": 53992,
      "satellite_name": "STARLINK-5108",
      "cospar_id": "2022-125AE",
      "shell_id": "starlink-real-53.2deg-545km",
      "plane_id": 12,
      "slot_id": 10,
      "epoch": "2026-06-25T23:58:56.851104",
      "inclination": 53.1606,
      "raan": 87.75099999999998,
      "eccentricity": 0.0001505,
      "argument_of_perigee": 88.06810000000002,
      "mean_anomaly": 272.04819999999995,
      "mean_motion": 15.08819075,
      "bstar": -0.00010287,
      "status": "active",
      "raw_omm": {
        "OBJECT_NAME": "STARLINK-5108",
        "OBJECT_ID": "2022-125AE",
        "EPOCH": "2026-06-25T23:58:56.851104",
        "MEAN_MOTION": 15.08819075,
        "ECCENTRICITY": 0.0001505,
        "INCLINATION": 53.1606,
        "RA_OF_ASC_NODE": 87.751,
        "ARG_OF_PERICENTER": 88.0681,
        "MEAN_ANOMALY": 272.0482,
        "EPHEMERIS_TYPE": 0,
        "CLASSIFICATION_TYPE": "U",
        "NORAD_CAT_ID": 53992,
        "ELEMENT_SET_NO": 999,
        "REV_AT_EPOCH": 20580,
        "BSTAR": -0.00010287,
        "MEAN_MOTION_DOT": -0.00001924,
        "MEAN_MOTION_DDOT": 0
      },
      "source": "celestrak",
      "source_url": "https://celestrak.org/NORAD/elements/gp.php?NAME=STARLINK&FORMAT=JSON",
      "catalog_fingerprint": "ee699b79"
    },
    {
      "satellite_id": "P13-S12",
      "norad_id": 53984,
      "satellite_name": "STARLINK-5142",
      "cospar_id": "2022-125W",
      "shell_id": "starlink-real-53.2deg-545km",
      "plane_id": 12,
      "slot_id": 11,
      "epoch": "2026-06-26T00:20:09.739104",
      "inclination": 53.1629,
      "raan": 87.84140000000002,
      "eccentricity": 0.0001515,
      "argument_of_perigee": 93.24599999999998,
      "mean_anomaly": 266.8705,
      "mean_motion": 15.08832056,
      "bstar": 0.0000087948,
      "status": "active",
      "raw_omm": {
        "OBJECT_NAME": "STARLINK-5142",
        "OBJECT_ID": "2022-125W",
        "EPOCH": "2026-06-26T00:20:09.739104",
        "MEAN_MOTION": 15.08832056,
        "ECCENTRICITY": 0.0001515,
        "INCLINATION": 53.1629,
        "RA_OF_ASC_NODE": 87.8414,
        "ARG_OF_PERICENTER": 93.246,
        "MEAN_ANOMALY": 266.8705,
        "EPHEMERIS_TYPE": 0,
        "CLASSIFICATION_TYPE": "U",
        "NORAD_CAT_ID": 53984,
        "ELEMENT_SET_NO": 999,
        "REV_AT_EPOCH": 20581,
        "BSTAR": 0.0000087948,
        "MEAN_MOTION_DOT": -0.00000148,
        "MEAN_MOTION_DDOT": 0
      },
      "source": "celestrak",
      "source_url": "https://celestrak.org/NORAD/elements/gp.php?NAME=STARLINK&FORMAT=JSON",
      "catalog_fingerprint": "ee699b79"
    }
  ]
}