STARLINK-5120           
1 53982U 22125U   26177.06917143  .00005880  00000+0  38706-3 0  9990
2 53982  53.1599  87.4755 0001325  94.8046 265.3097 15.08856203205815
STARLINK-5142           
1 53984U 22125W   26177.01400161 -.00000148  00000+0  87948-5 0  9991
2 53984  53.1629  87.8414 0001515  93.2460 266.8705 15.08832056205813
STARLINK-5113           
1 53988U 22125AA  26177.07655690 -.00000948  00000+0 -41438-4 0  9992
2 53988  53.1613  87.5198 0001372 103.2664 256.8480 15.08842132205810
STARLINK-5108           
1 53992U 22125AE  26176.99926912 -.00001924  00000+0 -10287-3 0  9997
2 53992  53.1606  87.7510 0001504  88.0681 272.0482 15.08819076205805
STARLINK-5128           
1 53998U 22125AL  26176.97715211 -.00000857  00000+0 -35760-4 0  9997
2 53998  53.1615  87.6132 0001415  95.9322 264.1831 15.08835518205810
STARLINK-5135           
1 54005U 22125AT  26176.97346079 -.00000178  00000+0  69003-5 0  9992
2 54005  53.1619  87.5900 0001398  91.9716 268.1436 15.08838456205818
